CHINASAT 10 (ZX 10)     
1 37677U 11026A   21182.50595962 -.00000355  00000-0  00000+0 0  9998
2 37677   0.0577 246.0014 0004226 268.1960  58.2220  1.00269420 36792
TIANLIAN 1-02           
1 37737U 11032A   21182.61168399 -.00000020  00000-0  00000-0 0  9994
2 37737   2.3485  74.5171 0017371  88.5660 147.9588  1.00272927 36559
GSAT-12                 
1 37746U 11034A   21182.49344885  .00000121  00000-0  00000+0 0  9998
2 37746   0.5059  96.7658 0011231 357.8447  50.7228  1.00272568 36795
SES-3                   
1 37748U 11035A   21182.46335244 -.00000105  00000-0  00000-0 0  9991
2 37748   0.0197 342.4313 0003606 116.2982 244.7863  1.00272329 36438
KAZSAT-2                
1 37749U 11035B   21182.07047484 -.00000203  00000-0  00000-0 0  9994
2 37749   0.0434 160.2504 0002280   0.3187 230.6482  1.00271763 35215
BEIDOU 9                
1 37763U 11038A   21181.94840941 -.00000019  00000-0  00000+0 0  9991
2 37763  54.4655 181.9112 0084200 226.8782 306.6061  1.00262396 36470
ASTRA 1N                
1 37775U 11041A   21182.48769128  .00000117  00000-0  00000-0 0  9994
2 37775   0.0393   3.3253 0004588  76.5902  34.6153  1.00274577 26368
BSAT-3C (JCSAT-110R)    
1 37776U 11041B   21182.50578514 -.00000354  00000-0  00000-0 0  9999
2 37776   0.0180  44.3443 0000475 162.1325   5.3194  1.00271164 32312
PAKSAT-1R               
1 37779U 11042A   21182.24285278  .00000149  00000-0  00000-0 0  9997
2 37779   0.0519 231.4594 0006635 187.1394 346.3492  1.00274859 36300
CHINASAT 1A (ZX 1A)     
1 37804U 11047A   21182.63521650 -.00000341  00000-0  00000-0 0  9996
2 37804   0.0449 131.5743 0000698 300.8068 205.9915  1.00267614 35908
SES-2                   
1 37809U 11049A   21182.39475581 -.00000199  00000-0  00000-0 0  9998
2 37809   0.0405 294.2735 0002875 166.9838 233.5010  1.00271552 35794
ARABSAT-5C              
1 37810U 11049B   21182.48786575  .00000120  00000-0  00000-0 0  9991
2 37810   0.0548   1.7854 0005656 134.4774 339.1249  1.00269092 35890
EUTELSAT 7 WEST A       
1 37816U 11051A   21182.41063277 -.00000064  00000-0  00000-0 0  9998
2 37816   0.0614  24.5618 0004120  92.8598 302.7294  1.00273425 35720
QUETZSAT 1              
1 37826U 11054A   21182.46849936 -.00000245  00000-0  00000-0 0  9992
2 37826   0.0296 311.7793 0002913 158.5942 261.0047  1.00272786 31721
INTELSAT 18 (IS-18)     
1 37834U 11056A   21182.52037475  .00000050  00000-0  00000-0 0  9990
2 37834   0.0156  20.8001 0001995  84.1942 182.1112  1.00272357 35643
EUTELSAT 16A            
1 37836U 11057A   21182.34352396  .00000101  00000-0  00000-0 0  9992
2 37836   0.0648 358.4548 0005449 104.7116 316.1369  1.00274445 27810
VIASAT-1                
1 37843U 11059A   21182.47526215 -.00000027  00000-0  00000-0 0  9997
2 37843   0.0196  34.8602 0002740  76.2764 224.5725  1.00271286 29152
ASIASAT 7               
1 37933U 11069A   21182.43314502 -.00000337  00000-0  00000-0 0  9992
2 37933   0.0071 353.2665 0001409  93.6707  94.1478  1.00268334 35290
BEIDOU 10               
1 37948U 11073A   21182.24154700 -.00000174  00000-0  00000-0 0  9993
2 37948  50.9399 293.4561 0076208 214.9966 312.5038  1.00290002 35237
LUCH 5A                 
1 37951U 11074B   21182.60794403 -.00000050  00000-0  00000-0 0  9991
2 37951   4.1539 105.0303 0005825 347.0716 213.7004  1.00268635 35027
NIGCOMSAT 1R            
1 38014U 11077A   21182.49240201  .00000141  00000-0  00000-0 0  9994
2 38014   0.0341 220.2071 0002211 238.9755  40.3318  1.00275043 34799
FENGYUN 2F              
1 38049U 12002A   21182.50622132 -.00000362  00000-0  00000-0 0  9996
2 38049   2.9483  82.0359 0002422  50.0996  81.8955  1.00277501 34723
WGS F4 (USA 233)        
1 38070U 12003A   21182.50156178 -.00000219  00000-0  00000-0 0  9994
2 38070   0.0175  50.8853 0000318 130.6093   7.2401  1.00272214 25983
SES-4                   
1 38087U 12007A   21182.33593443 -.00000172  00000-0  00000-0 0  9995
2 38087   0.0062  11.2878 0002451  99.4378 267.8010  1.00271396 34072
BEIDOU 11               
1 38091U 12008A   21182.49562975  .00000052  00000-0  00000-0 0  9990
2 38091   1.5845  67.9840 0007816 337.1782 111.8045  1.00276329 34314
MUOS-1                  
1 38093U 12009A   21182.46387586 -.00000131  00000-0  00000-0 0  9992
2 38093   2.6301  21.2620 0055896   3.6061 321.8346  1.00270535 34275
INTELSAT 22 (IS-22)     
1 38098U 12011A   21182.49824683 -.00000062  00000-0  00000-0 0  9990
2 38098   0.0145  51.1122 0002748  49.1577  70.9504  1.00271550 33659
APSTAR 7                
1 38107U 12013A   21182.49911918 -.00000105  00000-0  00000+0 0  9998
2 38107   0.0173  53.2367 0003125  57.2544  65.4410  1.00272114 34001
YAHSAT 1B               
1 38245U 12016A   21182.49336161  .00000123  00000-0  00000-0 0  9995
2 38245   0.0113  72.6685 0002548  27.2056  45.0745  1.00271365 27430
AEHF-2 (USA 235)        
1 38254U 12019A   21182.47041855 -.00000279  00000-0  00000-0 0  9992
2 38254   2.6501  56.7538 0008691  50.1669 274.4737  1.00277570 32685
JCSAT-13                
1 38331U 12023A   21182.43104833 -.00000360  00000-0  00000-0 0  9996
2 38331   0.0152  87.0857 0002492  36.4723  75.3102  1.00272384 33365
VINASAT-2               
1 38332U 12023B   21182.43840296 -.00000332  00000-0  00000+0 0  9995
2 38332   0.0279 304.1518 0002452 166.8231  98.3863  1.00270730 33442
NIMIQ 6                 
1 38342U 12026A   21182.39397069 -.00000177  00000-0  00000+0 0  9996
2 38342   0.0094 342.2489 0002523 109.2817 238.8420  1.00272814 33432
CHINASAT 2A (ZX 2A)     
1 38352U 12028A   21182.22196948 -.00000297  00000-0  00000-0 0  9998
2 38352   0.0470 120.5435 0002447 316.2047  20.8622  1.00269380 33212
INTELSAT 19 (IS-19)     
1 38356U 12030A   21182.51438411 -.00000060  00000-0  00000-0 0  9999
2 38356   0.0191  17.1350 0003062  93.7209 160.1063  1.00270410 32272
ECHOSTAR 17             
1 38551U 12035A   21182.48238833 -.00000078  00000-0  00000-0 0  9992
2 38551   0.0015 351.7527 0002025 106.8749 247.6628  1.00271892 32891
METEOSAT-10 (MSG-3)     
1 38552U 12035B   21182.27042090  .00000056  00000-0  00000-0 0  9993
2 38552   1.2103  12.3938 0001509 104.2176 269.6332  1.00266378 33059
SES-5                   
1 38652U 12036A   21182.32965966  .00000030  00000-0  00000-0 0  9999
2 38652   0.0452 299.1031 0002181 160.1031 304.0334  1.00270615 26328
TIANLIAN 1-03           
1 38730U 12040A   21182.27260179  .00000120  00000-0  00000-0 0  9999
2 38730   1.1426  96.1966 0005725 332.2900 329.5606  1.00269891 32813
INTELSAT 20 (IS-20)     
1 38740U 12043A   21182.49754894 -.00000028  00000-0  00000-0 0  9997
2 38740   0.0081  65.8613 0001082 135.0476 326.4705  1.00271225 32584
HYLAS 2                 
1 38741U 12043B   21182.49004664  .00000151  00000-0  00000-0 0  9997
2 38741   0.0185 342.4444 0001939 116.2242  28.5344  1.00270887 32604
INTELSAT 21 (IS-21)     
1 38749U 12045A   21182.47233774 -.00000288  00000-0  00000-0 0  9993
2 38749   0.0170  48.9464 0002322  58.0228 284.8057  1.00273345 32363
ASTRA 2F                
1 38778U 12051A   21182.48952323  .00000147  00000-0  00000-0 0  9994
2 38778   0.0999 250.9819 0002687 284.1950 308.9992  1.00275002 22953
GSAT-10                 
1 38779U 12051B   21182.10743635 -.00000170  00000-0  00000-0 0  9995
2 38779   0.0417 279.7104 0001687 180.4279 300.9174  1.00273058 31948
INTELSAT 23 (IS-23)     
1 38867U 12057A   21182.47329734 -.00000288  00000-0  00000-0 0  9999
2 38867   0.0318 253.3365 0001935 208.1989 295.5831  1.00272060 31777
BEIDOU 16               
1 38953U 12059A   21182.50068943 -.00000180  00000-0  00000-0 0  9994
2 38953   2.0025  84.6942 0006792 300.6053 158.7451  1.00271539 31882
LUCH 5B                 
1 38977U 12061A   21182.40888804 -.00000141  00000-0  00000+0 0  9994
2 38977   6.5418  65.1362 0004787  34.8172 310.6056  1.00271208 32001
YAMAL 300K              
1 38978U 12061B   21182.52279049  .00000068  00000-0  00000-0 0  9991
2 38978   0.0092 349.5623 0000542 237.5969  63.7639  1.00275801 31475
STAR ONE C3             
1 38991U 12062A   21182.46893554 -.00000252  00000-0  00000-0 0  9999
2 38991   0.0273  84.1036 0002866   5.7418 283.6952  1.00274690 31595
EUTELSAT 21B            
1 38992U 12062B   21182.48821469  .00000127  00000-0  00000-0 0  9998
2 38992   0.0648 358.7415 0002781 106.8115  11.5910  1.00275489 31674
ECHOSTAR 16             
1 39008U 16039B   21182.47163986 -.00000285  00000-0  00000+0 0  9992
2 39008   0.0188  30.2510 0001794  81.7374 276.0109  1.00273540 31642
CHINASAT 12 (ZX 12)     
1 39017U 12067A   21182.50138733 -.00000210  00000-0  00000+0 0  9993
2 39017   0.0182  46.1177 0002968  52.0820  89.5397  1.00270844 31541
EUTELSAT 70B            
1 39020U 12069A   21182.49798512 -.00000047  00000-0  00000-0 0  9993
2 39020   0.0547  18.6605 0003753 130.4316  20.4036  1.00271822 31343
YAMAL 402               
1 39022U 12070A   21182.49484462  .00000082  00000-0  00000-0 0  9991
2 39022   0.0267 103.0109 0002866   3.1374  46.6386  1.00272998 31226
SKYNET 5D               
1 39034U 12075A   21182.49440845  .00000095  00000-0  00000+0 0  9999
2 39034   0.0705 352.4811 0003859 121.9886  36.0666  1.00275846 31359
MEXSAT 3                
1 39035U 12075B   21182.47526185 -.00000029  00000-0  00000+0 0  9998
2 39035   0.0144 333.6430 0001652 128.6398 233.7342  1.00272595 31317
TDRS 11                 
1 39070U 13004A   21182.52498979  .00000078  00000-0  00000-0 0  9999
2 39070   3.3131 337.7730 0005668  72.0591 244.8095  1.00279295 28525
AMAZONAS 3              
1 39078U 13006A   21182.04107632 -.00000287  00000-0  00000-0 0  9992
2 39078   0.0525 239.1595 0002751 256.0542  97.8555  1.00269710 26737
AZERSPACE 1             
1 39079U 13006B   21182.49309991  .00000129  00000-0  00000-0 0  9998
2 39079   0.0174 306.6757 0001288 168.6120  27.9758  1.00274350 30642
